GPS BIIA-23 (PRN 18)    
1 22877U 93068A   18246.43328931 -.00000001  00000-0  00000+0 0  9997
2 22877  54.4802  80.2926 0147197  76.7099 301.2153  2.00568336182116
GPS BIIR-2  (PRN 13)    
1 24876U 97035A   18246.30334886  .00000054  00000-0  00000+0 0  9995
2 24876  55.4828 209.7033 0031210  84.3203 276.0218  2.00564249154718
GPS BIIR-3  (PRN 11)    
1 25933U 99055A   18246.46369910 -.00000022  00000-0  00000+0 0  9993
2 25933  51.9429  58.2812 0167975 103.7834 298.8169  2.00565316138532
GPS BIIR-4  (PRN 20)    
1 26360U 00025A   18246.53218593 -.00000017  00000-0  00000+0 0  9999
2 26360  53.2228 136.3989 0040186 121.3412  17.3224  2.00563020134222
GPS BIIR-5  (PRN 28)    
1 26407U 00040A   18246.41839395 -.00000053  00000-0  00000+0 0  9994
2 26407  56.4363 327.8370 0197868 273.1391 121.1096  2.00562427132906
GPS BIIR-6  (PRN 14)    
1 26605U 00071A   18246.36123208  .00000049  00000-0  00000+0 0  9995
2 26605  55.0562 207.2620 0102873 249.1315  10.9277  2.00569311130499
GPS BIIR-8  (PRN 16)    
1 27663U 03005A   18246.32362383 -.00000053  00000-0  00000+0 0  9991
2 27663  56.4998 327.6019 0098584  28.8002  57.1954  2.00562112114263
GPS BIIR-9  (PRN 21)    
1 27704U 03010A   18246.54764729 -.00000002  00000-0  00000+0 0  9991
2 27704  54.1518  79.8491 0245370 272.2402 295.4998  2.00567649113060
GPS BIIR-10 (PRN 22)    
1 28129U 03058A   18246.00040457 -.00000014  00000-0  00000+0 0  9994
2 28129  53.0356 139.2610 0073473 274.6231  84.5980  2.00556943107755
GPS BIIR-11 (PRN 19)    
1 28190U 04009A   18246.55032528 -.00000045  00000-0  00000+0 0  9993
2 28190  56.2009  28.4176 0095019  72.4245 323.1940  2.00558099105949
GPS BIIR-12 (PRN 23)    
1 28361U 04023A   18246.31910345  .00000040  00000-0  00000+0 0  9999
2 28361  54.0591 201.9252 0128280 227.1956 277.8591  2.00555444104025
GPS BIIR-13 (PRN 02)    
1 28474U 04045A   18246.57505426 -.00000001  00000-0  00000+0 0  9994
2 28474  54.5182  79.4921 0182218 255.0195  73.4184  2.00548147101395
GPS BIIRM-1 (PRN 17)    
1 28874U 05038A   18246.04659475 -.00000047  00000-0  00000+0 0  9997
2 28874  56.3383  25.7571 0127605 258.3775 159.5217  2.00571699 94781
GPS BIIRM-2 (PRN 31)    
1 29486U 06042A   18246.11314380  .00000061  00000-0  00000+0 0  9999
2 29486  55.1397 264.5449 0088862 351.8474  36.0279  2.00556782 87501
GPS BIIRM-3 (PRN 12)    
1 29601U 06052A   18246.01462580 -.00000051  00000-0  00000+0 0  9994
2 29601  56.4765 326.5306 0068331  57.8038 302.9105  2.00551663 86417
GPS BIIRM-4 (PRN 15)    
1 32260U 07047A   18245.34419186  .00000041  00000-0  00000-0 0  9992
2 32260  53.1831 197.9177 0104491  39.3547 321.3854  2.00547423 79792
GPS BIIRM-5 (PRN 29)    
1 32384U 07062A   18246.18492562 -.00000046  00000-0  00000+0 0  9993
2 32384  56.4144  26.3670 0005786  89.7134 295.6224  2.00568091 78532
GPS BIIRM-6 (PRN 07)    
1 32711U 08012A   18246.24650640  .00000062  00000-0  00000+0 0  9990
2 32711  54.8748 263.7990 0121991 217.8315 141.3485  2.00566860 76718
GPS BIIRM-8 (PRN 05)    
1 35752U 09043A   18246.45674501 -.00000015  00000-0  00000+0 0  9997
2 35752  54.3366 141.5367 0054654  36.5699 142.0068  2.00551371 66300
GPS BIIF-1  (PRN 25)    
1 36585U 10022A   18245.95186058 -.00000047  00000-0  00000-0 0  9996
2 36585  55.7646 323.0390 0072673  48.5171 232.3508  2.00572531 60546
GPS BIIF-2  (PRN 01)    
1 37753U 11036A   18246.44689616  .00000003  00000-0  00000+0 0  9993
2 37753  55.7163  83.1176 0079553  38.0982 325.2757  2.00564643 52232
GPS BIIF-3  (PRN 24)    
1 38833U 12053A   18245.92794900  .00000062  00000-0  00000+0 0  9993
2 38833  53.9062 260.2928 0070650  28.9256 331.5034  2.00568126 43298
GPS BIIF-4  (PRN 27)    
1 39166U 13023A   18245.78859883 -.00000050  00000-0  00000-0 0  9996
2 39166  56.0323  22.6382 0059273  24.1634 336.1258  2.00561737 38836
GPS BIIF-5  (PRN 30)    
1 39533U 14008A   18246.28716214  .00000057  00000-0  00000+0 0  9999
2 39533  54.0475 265.6387 0036709 192.6035 167.3505  2.00560794 33194
GPS BIIF-6  (PRN 06)    
1 39741U 14026A   18246.56448983  .00000004  00000-0  00000+0 0  9998
2 39741  55.6990  82.6363 0011802 292.1086  67.8365  2.00561468 31481
GPS BIIF-7  (PRN 09)    
1 40105U 14045A   18246.15344371  .00000043  00000-0  00000+0 0  9999
2 40105  54.5853 202.0786 0007552 104.3722 255.6975  2.00577273 29929
GPS BIIF-8  (PRN 03)    
1 40294U 14068A   18246.03166048 -.00000011  00000-0  00000+0 0  9999
2 40294  55.0879 142.8817 0015782  27.3793 332.7597  2.00561792 28143
GPS BIIF-9  (PRN 26)    
1 40534U 15013A   18246.16600974 -.00000046  00000-0  00000+0 0  9990
2 40534  54.7027 321.6710 0028624 359.4256   0.6291  2.00558903 25219
GPS BIIF-10  (PRN 08)   
1 40730U 15033A   18246.32604449 -.00000053  00000-0  00000+0 0  9997
2 40730  55.5616  22.0873 0035941 333.4529  26.3761  2.00570144 22975
GPS BIIF-11  (PRN 10)   
1 41019U 15062A   18245.87953102 -.00000010  00000-0  00000+0 0  9995
2 41019  55.0920 142.6931 0038262 203.2659 156.6169  2.00564401 20785
GPS BIIF-12  (PRN 32)   
1 41328U 16007A   18245.96784611  .00000046  00000-0  00000+0 0  9993
2 41328  54.8344 202.3977 0024449 219.1635 140.6457  2.00560164 18840
